GPS BIIA-10 (PRN 32)    
1 20959U 90103A   13082.25915684 -.00000004  00000-0  00000+0 0  9121
2 20959  54.4130 227.3398 0116630 337.0591  85.5345  2.00556832163486
GPS BIIA-14 (PRN 26)    
1 22014U 92039A   13082.50770690  .00000011  00000-0  00000+0 0  7012
2 22014  56.1398 287.6207 0210309  70.0704 322.7858  2.00565164145215
GPS BIIA-15 (PRN 27)    
1 22108U 92058A   13082.27912887 -.00000067  00000-0  00000+0 0  6265
2 22108  56.2420 340.5472 0221395 306.2545 201.4432  2.00574052150384
GPS BIIA-21 (PRN 09)    
1 22700U 93042A   13082.22372061 -.00000068  00000-0  00000+0 0  9484
2 22700  56.3949 342.1295 0170438  94.1352  45.5123  2.00665656144557
GPS BIIA-22 (PRN 30)    
1 22779U 93054A   13081.89229020 -.00000042  00000-0  00000+0 0  6266
2 22779  55.1931  36.6203 0106633  92.2270 308.4715  2.00567477143301
GPS BIIA-23 (PRN 04)    
1 22877U 93068A   13082.36038289 -.00000002  00000-0  00000+0 0  3047
2 22877  53.7282 162.1793 0101182  54.5184  34.2924  2.00551731142201
GPS BIIA-24 (PRN 06)    
1 23027U 94016A   13081.98161736  .00000050  00000-0  00000+0 0  2636
2 23027  53.8908  98.8104 0080063 337.6473  52.9456  2.00561955139501
GPS BIIA-25 (PRN 03)    
1 23833U 96019A   13081.46143324  .00000043  00000-0  10000-3 0  4619
2 23833  53.5074  94.3099 0157925  73.0581 288.7203  2.00562456124470
GPS BIIA-26 (PRN 10)    
1 23953U 96041A   13082.40990227 -.00000008  00000-0  00000+0 0  9515
2 23953  54.0846 223.3753 0121815  44.8460  21.8370  2.00569352122277
GPS BIIR-2  (PRN 13)    
1 24876U 97035A   13082.51029475  .00000011  00000-0  00000+0 0  4196
2 24876  56.2847 288.0297 0049275 119.8313  17.4358  2.00551707114810
GPS BIIA-28 (PRN 08)    
1 25030U 97067A   13082.15093465 -.00000073  00000-0  00000+0 0  3642
2 25030  57.1963 348.6342 0128190 195.9845 304.6702  2.00573805112708
GPS BIIR-3  (PRN 11)    
1 25933U 99055A   13082.07694154  .00000010  00000-0  10000-3 0  8534
2 25933  50.9208 145.6676 0136647  65.9385 295.5530  2.00561224 98622
GPS BIIR-4  (PRN 20)    
1 26360U 00025A   13082.16992203 -.00000012  00000-0  00000+0 0  9454
2 26360  53.1957 219.4126 0053033  73.3990 266.7867  2.00551121 94315
GPS BIIR-5  (PRN 28)    
1 26407U 00040A   13082.24689347 -.00000022  00000-0  00000+0 0  8960
2 26407  56.2976  45.5330 0188602 258.3365 249.0407  2.00567542 92999
GPS BIIR-6  (PRN 14)    
1 26605U 00071A   13082.37915895  .00000011  00000-0  00000+0 0  9113
2 26605  55.8666 286.3855 0069270 244.5835 289.7291  2.00557455 90593
GPS BIIR-7  (PRN 18)    
1 26690U 01004A   13082.46116678 -.00000010  00000-0  00000+0 0  7901
2 26690  53.1554 222.4664 0141411 238.8426  83.3913  2.00551352 89006
GPS BIIR-8  (PRN 16)    
1 27663U 03005A   13082.24827608 -.00000023  00000-0  00000+0 0  2227
2 27663  56.3877  45.1702 0070741   1.2335 266.6375  2.00571124 74350
GPS BIIR-9  (PRN 21)    
1 27704U 03010A   13081.62495852 -.00000011  00000-0  00000+0 0  1059
2 27704  53.3723 162.4430 0202901 236.5861 262.7197  2.00558508 73131
GPS BIIR-10 (PRN 22)    
1 28129U 03058A   13082.00771545 -.00000010  00000-0  00000+0 0  6775
2 28129  53.0263 222.6423 0065743 243.7012  82.1878  2.00565134 67843
GPS BIIR-11 (PRN 19)    
1 28190U 04009A   13082.18922650  .00000056  00000-0  00000+0 0  6739
2 28190  55.1319 107.6020 0090150  14.4773 125.3565  2.00562473 66023
GPS BIIR-12 (PRN 23)    
1 28361U 04023A   13081.97883802  .00000010  00000-0  00000+0 0  4903
2 28361  54.8106 283.1056 0083581 194.5101 303.7932  2.00556353 64104
GPS BIIR-13 (PRN 02)    
1 28474U 04045A   13082.45525363  .00000001  00000-0  00000+0 0  3775
2 28474  53.7835 161.2291 0123068 209.7701 275.6154  2.00567813 61476
GPS BIIRM-1 (PRN 17)    
1 28874U 05038A   13082.36200353  .00000058  00000-0  00000+0 0  6372
2 28874  55.2895 104.6079 0084624 234.3979 285.5689  2.00571465 54892
GPS BIIRM-2 (PRN 31)    
1 29486U 06042A   13081.80596023 -.00000073  00000-0  00000+0 0   314
2 29486  56.1865 343.7449 0081743 315.5272  85.2504  2.00576529 47588
GPS BIIRM-3 (PRN 12)    
1 29601U 06052A   13082.46916197 -.00000025  00000-0  00000+0 0   604
2 29601  56.3468  44.1104 0044065   7.9795 193.4469  2.00572587 46509
GPS BIIRM-4 (PRN 15)    
1 32260U 07047A   13081.56012609  .00000009  00000-0  00000+0 0  7696
2 32260  53.9574 280.8201 0053268   6.7285  32.3064  2.00556137 39875
GPS BIIRM-5 (PRN 29)    
1 32384U 07062A   13082.51128968  .00000060  00000-0  00000+0 0  8050
2 32384  55.3251 105.1032 0021776 295.3168 202.7744  2.00563414 38622
GPS BIIRM-6 (PRN 07)    
1 32711U 08012A   13082.41497662 -.00000070  00000-0  10000-3 0  5604
2 32711  55.9001 343.4777 0061568 194.6993 165.1596  2.00560366 36839
GPS BIIRM-8 (PRN 05)    
1 35752U 09043A   13082.43655595 -.00000008  00000-0  00000+0 0  3165
2 35752  54.3803 222.2391 0029882  13.0377  28.6378  2.00573273 26403
GPS BIIF-1  (PRN 25)    
1 36585U 10022A   13082.50597395 -.00000031  00000-0  00000+0 0  1276
2 36585  55.7070  41.9593 0022626  27.4854 172.4413  2.00576258 20652
GPS BIIF-2  (PRN 01)    
1 37753U 11036A   13082.20531410 -.00000002  00000-0  00000+0 0  5916
2 37753  55.0144 162.3978 0016387  10.5265  57.3304  2.00560004 12334
GPS BIIF-3  (PRN 24)    
1 38833U 12053A   13082.09837579 -.00000071  00000-0  00000+0 0  1381
2 38833  54.9577 341.9183 0008141   1.7955 358.2462  2.00561360  3392
